SZ-21 DEB               
1 66515U 25246C   25324.66875876  .00024769  00000+0  28923-3 0  9995
2 66515  41.4744 150.5325 0004560 103.8816 256.2531 15.61024757   992
