CCSDS_OMM_VERS = 2.0
CREATION_DATE  = 
ORIGINATOR     = 

OBJECT_NAME    = SZ-21 DEB
OBJECT_ID      = 2025-246C
CENTER_NAME    = EARTH
REF_FRAME      = TEME
TIME_SYSTEM    = UTC
MEAN_ELEMENT_THEORY = SGP/SGP4

EPOCH          = 2025-11-20T16:03:00.756864
MEAN_MOTION    = 15.61024757
ECCENTRICITY   = .000456
INCLINATION    = 41.4744
RA_OF_ASC_NODE = 150.5325
ARG_OF_PERICENTER = 103.8816
MEAN_ANOMALY   = 256.2531

EPHEMERIS_TYPE = 0
CLASSIFICATION_TYPE = U
NORAD_CAT_ID   = 66515
ELEMENT_SET_NO = 999
REV_AT_EPOCH   = 99
BSTAR          = .28923E-3
MEAN_MOTION_DOT = .24769E-3
MEAN_MOTION_DDOT = 0

